{
  "norad_id": 53904,
  "name": "STARLINK-4787",
  "history": [
    {
      "epoch": "2026-03-28T20:32:14.122464",
      "apogee_km": 540.7076459619484,
      "perigee_km": 538.7866878864779,
      "latitude_deg": -11.736156089964243,
      "longitude_deg": 12.549024959793314,
      "semi_major_axis_km": 6917.884166924213,
      "eccentricity": 0.00013884,
      "inclination_deg": 53.2178,
      "raan_deg": 237.6807,
      "arg_perigee_deg": 93.9998,
      "mean_anomaly_deg": 266.1153,
      "mean_motion_rev_day": 15.08838764
    }
  ]
}