{"fetched_at":"2026-03-29T16:36:15Z","count":15609,"tles":[{"name":"STARLINK-4787","line1":"1 53904U 22119U   26087.85571901  .00000433  00000+0  45292-4 0  9990","line2":"2 53904  53.2178 237.6807 0001388  93.9998 266.1153 15.08838764194580","category":"Starlink"}]}